IRIDIUM 36 [-]          
1 24967U 97056C   24080.81383953  .00000865  00000+0  28713-3 0  9991
2 24967  86.4029   3.3791 0002321  83.2839 276.8623 14.36683011387109
IRIDIUM 39 [-]          
1 25042U 97069D   24080.96262107  .00001489  00000+0  39686-3 0  9997
2 25042  86.3918  45.2859 0019346  25.3964 334.8185 14.47764050383357
IRIDIUM 38 [-]          
1 25043U 97069E   24080.91854677  .00000953  00000+0  31430-3 0  9996
2 25043  86.3923  63.7393 0003608 113.8131 246.3445 14.37119640380839
IRIDIUM 42 [-]          
1 25077U 97077A   24080.93691299  .00000869  00000+0  29611-3 0  9997
2 25077  86.3917  69.3512 0002546 102.9734 257.1747 14.35431115376159
IRIDIUM 44 [-]          
1 25078U 97077B   24080.92359889  .00000996  00000+0  31494-3 0  9996
2 25078  86.3941  52.4891 0004089  83.1054 277.0610 14.39255983378488
IRIDIUM 45 [-]          
1 25104U 97082A   24080.94107201  .00023006  00000+0  13706-2 0  9995
2 25104  86.3698 263.5939 0167020 199.4533 160.0279 15.00019287383610
IRIDIUM 24 [-]          
1 25105U 97082B   24080.91208946  .00000823  00000+0  24971-3 0  9990
2 25105  86.3854 272.2524 0013059 128.3344 231.9031 14.41024142377915
IRIDIUM 51 [-]          
1 25262U 98018A   24080.75578305  .00024838  00000+0  12319-2 0  9999
2 25262  86.3865 273.7614 0153827 147.3132 213.7742 15.07719296378070
